CCSDS_OMM_VERS = 2.0
CREATION_DATE  = 
ORIGINATOR     = 

OBJECT_NAME    = STARLINK-37064
OBJECT_ID      = 2026-049R
CENTER_NAME    = EARTH
REF_FRAME      = TEME
TIME_SYSTEM    = UTC
MEAN_ELEMENT_THEORY = SGP/SGP4

EPOCH          = 2026-03-19T12:16:14.522880
MEAN_MOTION    = 16.03667729
ECCENTRICITY   = .00022388
INCLINATION    = 97.2784
RA_OF_ASC_NODE = 98.0764
ARG_OF_PERICENTER = 357.8304
MEAN_ANOMALY   = 2.2966

EPHEMERIS_TYPE = 0
CLASSIFICATION_TYPE = U
NORAD_CAT_ID   = 68157
ELEMENT_SET_NO = 999
REV_AT_EPOCH   = 95
BSTAR          = -.22898351E-3
MEAN_MOTION_DOT = -.144348E-2
MEAN_MOTION_DDOT = .10411467E-4

CCSDS_OMM_VERS = 2.0
CREATION_DATE  = 
ORIGINATOR     = 

OBJECT_NAME    = STARLINK-37069
OBJECT_ID      = 2026-049S
CENTER_NAME    = EARTH
REF_FRAME      = TEME
TIME_SYSTEM    = UTC
MEAN_ELEMENT_THEORY = SGP/SGP4

EPOCH          = 2026-03-19T12:13:33.650400
MEAN_MOTION    = 16.06600253
ECCENTRICITY   = .0001368
INCLINATION    = 97.2784
RA_OF_ASC_NODE = 98.0788
ARG_OF_PERICENTER = 7.2640
MEAN_ANOMALY   = 352.8662

EPHEMERIS_TYPE = 0
CLASSIFICATION_TYPE = U
NORAD_CAT_ID   = 68158
ELEMENT_SET_NO = 999
REV_AT_EPOCH   = 95
BSTAR          = .14785E-2
MEAN_MOTION_DOT = .1093981E-1
MEAN_MOTION_DDOT = .68408E-3

CCSDS_OMM_VERS = 2.0
CREATION_DATE  = 
ORIGINATOR     = 

OBJECT_NAME    = STARLINK-37053
OBJECT_ID      = 2026-049T
CENTER_NAME    = EARTH
REF_FRAME      = TEME
TIME_SYSTEM    = UTC
MEAN_ELEMENT_THEORY = SGP/SGP4

EPOCH          = 2026-03-19T07:44:16.985184
MEAN_MOTION    = 16.05261971
ECCENTRICITY   = .00025313
INCLINATION    = 97.2784
RA_OF_ASC_NODE = 97.8738
ARG_OF_PERICENTER = 141.0873
MEAN_ANOMALY   = 219.0591

EPHEMERIS_TYPE = 0
CLASSIFICATION_TYPE = U
NORAD_CAT_ID   = 68159
ELEMENT_SET_NO = 999
REV_AT_EPOCH   = 92
BSTAR          = .95454192E-4
MEAN_MOTION_DOT = .65181E-3
MEAN_MOTION_DDOT = .4110318E-5

CCSDS_OMM_VERS = 2.0
CREATION_DATE  = 
ORIGINATOR     = 

OBJECT_NAME    = STARLINK-36306
OBJECT_ID      = 2026-049U
CENTER_NAME    = EARTH
REF_FRAME      = TEME
TIME_SYSTEM    = UTC
MEAN_ELEMENT_THEORY = SGP/SGP4

EPOCH          = 2026-03-19T12:13:21.534528
MEAN_MOTION    = 16.04569636
ECCENTRICITY   = .0002364
INCLINATION    = 97.2782
RA_OF_ASC_NODE = 98.0789
ARG_OF_PERICENTER = 13.0399
MEAN_ANOMALY   = 347.0943

EPHEMERIS_TYPE = 0
CLASSIFICATION_TYPE = U
NORAD_CAT_ID   = 68160
ELEMENT_SET_NO = 999
REV_AT_EPOCH   = 95
BSTAR          = -.30343808E-3
MEAN_MOTION_DOT = -.201573E-2
MEAN_MOTION_DDOT = .18201465E-4

CCSDS_OMM_VERS = 2.0
CREATION_DATE  = 
ORIGINATOR     = 

OBJECT_NAME    = STARLINK-37057
OBJECT_ID      = 2026-049V
CENTER_NAME    = EARTH
REF_FRAME      = TEME
TIME_SYSTEM    = UTC
MEAN_ELEMENT_THEORY = SGP/SGP4

EPOCH          = 2026-03-20T19:44:00.954528
MEAN_MOTION    = 15.99652779
ECCENTRICITY   = .00005165
INCLINATION    = 97.2774
RA_OF_ASC_NODE = 99.5066
ARG_OF_PERICENTER = 61.6825
MEAN_ANOMALY   = 298.4505

EPHEMERIS_TYPE = 0
CLASSIFICATION_TYPE = U
NORAD_CAT_ID   = 68161
ELEMENT_SET_NO = 999
REV_AT_EPOCH   = 116
BSTAR          = -.15396315E-2
MEAN_MOTION_DOT = -.764003E-2
MEAN_MOTION_DDOT = .19799191E-3

CCSDS_OMM_VERS = 2.0
CREATION_DATE  = 
ORIGINATOR     = 

OBJECT_NAME    = STARLINK-37013
OBJECT_ID      = 2026-049W
CENTER_NAME    = EARTH
REF_FRAME      = TEME
TIME_SYSTEM    = UTC
MEAN_ELEMENT_THEORY = SGP/SGP4

EPOCH          = 2026-03-21T16:40:57.524736
MEAN_MOTION    = 15.97720878
ECCENTRICITY   = .00024193
INCLINATION    = 97.2751
RA_OF_ASC_NODE = 100.4630
ARG_OF_PERICENTER = 181.7796
MEAN_ANOMALY   = 178.3473

EPHEMERIS_TYPE = 0
CLASSIFICATION_TYPE = U
NORAD_CAT_ID   = 68162
ELEMENT_SET_NO = 999
REV_AT_EPOCH   = 130
BSTAR          = -.96709955E-3
MEAN_MOTION_DOT = -.432164E-2
MEAN_MOTION_DDOT = .66806153E-4

CCSDS_OMM_VERS = 2.0
CREATION_DATE  = 
ORIGINATOR     = 

OBJECT_NAME    = STARLINK-36958
OBJECT_ID      = 2026-049X
CENTER_NAME    = EARTH
REF_FRAME      = TEME
TIME_SYSTEM    = UTC
MEAN_ELEMENT_THEORY = SGP/SGP4

EPOCH          = 2026-03-21T19:43:37.594560
MEAN_MOTION    = 15.96566451
ECCENTRICITY   = .0001991
INCLINATION    = 97.2737
RA_OF_ASC_NODE = 100.5959
ARG_OF_PERICENTER = 109.9976
MEAN_ANOMALY   = 250.1515

EPHEMERIS_TYPE = 0
CLASSIFICATION_TYPE = U
NORAD_CAT_ID   = 68163
ELEMENT_SET_NO = 999
REV_AT_EPOCH   = 132
BSTAR          = -.17839671E-2
MEAN_MOTION_DOT = -.746686E-2
MEAN_MOTION_DDOT = .18327201E-3

CCSDS_OMM_VERS = 2.0
CREATION_DATE  = 
ORIGINATOR     = 

OBJECT_NAME    = STARLINK-37002
OBJECT_ID      = 2026-049Y
CENTER_NAME    = EARTH
REF_FRAME      = TEME
TIME_SYSTEM    = UTC
MEAN_ELEMENT_THEORY = SGP/SGP4

EPOCH          = 2026-03-20T19:41:35.358432
MEAN_MOTION    = 16.00359997
ECCENTRICITY   = .0000568
INCLINATION    = 97.2773
RA_OF_ASC_NODE = 99.5096
ARG_OF_PERICENTER = 170.3743
MEAN_ANOMALY   = 189.7546

EPHEMERIS_TYPE = 0
CLASSIFICATION_TYPE = U
NORAD_CAT_ID   = 68164
ELEMENT_SET_NO = 999
REV_AT_EPOCH   = 116
BSTAR          = -.92965787E-3
MEAN_MOTION_DOT = -.481185E-2
MEAN_MOTION_DDOT = .84172413E-4

CCSDS_OMM_VERS = 2.0
CREATION_DATE  = 
ORIGINATOR     = 

OBJECT_NAME    = STARLINK-36971
OBJECT_ID      = 2026-049Z
CENTER_NAME    = EARTH
REF_FRAME      = TEME
TIME_SYSTEM    = UTC
MEAN_ELEMENT_THEORY = SGP/SGP4

EPOCH          = 2026-03-21T09:10:47.185248
MEAN_MOTION    = 15.99800071
ECCENTRICITY   = .00082212
INCLINATION    = 97.2764
RA_OF_ASC_NODE = 100.1226
ARG_OF_PERICENTER = 134.8506
MEAN_ANOMALY   = 225.3442

EPHEMERIS_TYPE = 0
CLASSIFICATION_TYPE = U
NORAD_CAT_ID   = 68165
ELEMENT_SET_NO = 999
REV_AT_EPOCH   = 125
BSTAR          = -.32495883E-2
MEAN_MOTION_DOT = -.1621138E-1
MEAN_MOTION_DDOT = .80040981E-3

CCSDS_OMM_VERS = 2.0
CREATION_DATE  = 
ORIGINATOR     = 

OBJECT_NAME    = STARLINK-36273
OBJECT_ID      = 2026-049AA
CENTER_NAME    = EARTH
REF_FRAME      = TEME
TIME_SYSTEM    = UTC
MEAN_ELEMENT_THEORY = SGP/SGP4

EPOCH          = 2026-03-20T18:09:04.725216
MEAN_MOTION    = 16.01239572
ECCENTRICITY   = .00006488
INCLINATION    = 97.2750
RA_OF_ASC_NODE = 99.4439
ARG_OF_PERICENTER = 211.7263
MEAN_ANOMALY   = 148.3977

EPHEMERIS_TYPE = 0
CLASSIFICATION_TYPE = U
NORAD_CAT_ID   = 68166
ELEMENT_SET_NO = 999
REV_AT_EPOCH   = 115
BSTAR          = -.5628694E-3
MEAN_MOTION_DOT = -.306844E-2
MEAN_MOTION_DDOT = .36956624E-4

CCSDS_OMM_VERS = 2.0
CREATION_DATE  = 
ORIGINATOR     = 

OBJECT_NAME    = STARLINK-36969
OBJECT_ID      = 2026-050A
CENTER_NAME    = EARTH
REF_FRAME      = TEME
TIME_SYSTEM    = UTC
MEAN_ELEMENT_THEORY = SGP/SGP4

EPOCH          = 2026-03-19T13:41:02.541120
MEAN_MOTION    = 15.97343210
ECCENTRICITY   = .0000488
INCLINATION    = 53.1618
RA_OF_ASC_NODE = 232.5443
ARG_OF_PERICENTER = 318.1927
MEAN_ANOMALY   = 41.9065

EPHEMERIS_TYPE = 0
CLASSIFICATION_TYPE = U
NORAD_CAT_ID   = 68167
ELEMENT_SET_NO = 999
REV_AT_EPOCH   = 203
BSTAR          = -.16788E-2
MEAN_MOTION_DOT = -.762286E-2
MEAN_MOTION_DDOT = .19812E-3

CCSDS_OMM_VERS = 2.0
CREATION_DATE  = 
ORIGINATOR     = 

OBJECT_NAME    = STARLINK-36984
OBJECT_ID      = 2026-050B
CENTER_NAME    = EARTH
REF_FRAME      = TEME
TIME_SYSTEM    = UTC
MEAN_ELEMENT_THEORY = SGP/SGP4

EPOCH          = 2026-03-19T13:40:45.953184
MEAN_MOTION    = 15.97468217
ECCENTRICITY   = .0000565
INCLINATION    = 53.1620
RA_OF_ASC_NODE = 232.5441
ARG_OF_PERICENTER = 333.0752
MEAN_ANOMALY   = 27.0248

EPHEMERIS_TYPE = 0
CLASSIFICATION_TYPE = U
NORAD_CAT_ID   = 68168
ELEMENT_SET_NO = 999
REV_AT_EPOCH   = 203
BSTAR          = -.16463E-2
MEAN_MOTION_DOT = -.752821E-2
MEAN_MOTION_DDOT = .194E-3

